[{"OBJECT_NAME":"STARLINK-3858","OBJECT_ID":"2022-051W","EPOCH":"2026-03-09T10:30:19.250784","MEAN_MOTION":15.088451,"ECCENTRICITY":0.00014257,"INCLINATION":53.2167,"RA_OF_ASC_NODE":129.9136,"ARG_OF_PERICENTER":85.6169,"MEAN_ANOMALY":274.4986,"EPHEMERIS_TYPE":0,"CLASSIFICATION_TYPE":"U","NORAD_CAT_ID":52553,"ELEMENT_SET_NO":999,"REV_AT_EPOCH":21141,"BSTAR":1.8734813e-5,"MEAN_MOTION_DOT":1.0e-7,"MEAN_MOTION_DDOT":0},{"OBJECT_NAME":"CZ-6A DEB","OBJECT_ID":"2024-140CA","EPOCH":"2026-03-09T15:46:26.997888","MEAN_MOTION":14.75225257,"ECCENTRICITY":0.02134198,"INCLINATION":89.2806,"RA_OF_ASC_NODE":301.2839,"ARG_OF_PERICENTER":224.2273,"MEAN_ANOMALY":134.1722,"EPHEMERIS_TYPE":0,"CLASSIFICATION_TYPE":"U","NORAD_CAT_ID":60673,"ELEMENT_SET_NO":999,"REV_AT_EPOCH":8478,"BSTAR":0.00067489672,"MEAN_MOTION_DOT":6.643e-5,"MEAN_MOTION_DDOT":0}]
